ORBCOMM FM37 [-]        
1 33064U 08031E   24009.96927177  .00001922  00000+0  30787-3 0  9992
2 33064  48.4427 307.5552 0006174 293.2486 180.7181 14.75687636836844
ORBCOMM FM40 [-]        
1 33065U 08031F   24009.19384274  .00002660  00000+0  40372-3 0  9994
2 33065  48.4441 301.7011 0007382 298.1438 204.0828 14.76848487836875
VESSELSAT 1 [-]         
1 37840U 11058C   24010.15876007  .00000394  00000+0  70460-4 0  9994
2 37840  19.9640  24.1288 0013772 182.7112 177.3219 14.11100708632420
ORBCOMM FM109 [+]       
1 40086U 14040A   24009.25572577  .00001080  00000+0  27931-3 0  9995
2 40086  47.0056 331.6226 0001658  32.4323 327.6663 14.56235998504501
ORBCOMM FM107 [+]       
1 40087U 14040B   24009.28988171  .00001088  00000+0  28115-3 0  9993
2 40087  47.0075 332.4084 0001805 351.0816   9.0036 14.56230301504581
ORBCOMM FM106 [-]       
1 40088U 14040C   24009.87076345  .00001244  00000+0  25512-3 0  9992
2 40088  47.0594 191.7212 0018111 157.3674 202.8018 14.66430319506659
ORBCOMM FM111 [-]       
1 40089U 14040D   24009.40969857  .00003490  00000+0  47044-3 0  9990
2 40089  47.0051 109.1606 0034329 211.9756 147.9056 14.80747323512318
ORBCOMM FM104 [-]       
1 40090U 14040E   24009.96303215  .00000982  00000+0  26537-3 0  9990
2 40090  47.0075 356.8260 0017911 329.8219  30.1633 14.54760182504240
